{
  "norad_id": 63242,
  "name": "HERMES-1",
  "history": [
    {
      "epoch": "2026-03-28T15:27:39.864960Z",
      "apogee_km": 509.66014827018716,
      "perigee_km": 497.1330045476916,
      "latitude_deg": -1.5465342249633004e-05,
      "longitude_deg": -77.25600155917135,
      "height_km": 507.9342828213004,
      "semi_major_axis_km": 6881.533576408939,
      "eccentricity": 0.0009102,
      "inclination_deg": 97.4004,
      "raan_deg": 340.7218,
      "arg_perigee_deg": 103.5198,
      "mean_anomaly_deg": 256.7052,
      "mean_motion_rev_day": 15.20809834
    },
    {
      "epoch": "2026-03-29T04:05:38.284800Z",
      "apogee_km": 509.6353788222841,
      "perigee_km": 497.09865480445296,
      "latitude_deg": 2.168074023045584e-05,
      "longitude_deg": 93.2486630529725,
      "height_km": 507.7496054260451,
      "semi_major_axis_km": 6881.504016813368,
      "eccentricity": 0.0009109,
      "inclination_deg": 97.4004,
      "raan_deg": 341.2387,
      "arg_perigee_deg": 102.0571,
      "mean_anomaly_deg": 258.1686,
      "mean_motion_rev_day": 15.20819633
    },
    {
      "epoch": "2026-03-30T05:21:34.426368Z",
      "apogee_km": 509.61219390213955,
      "perigee_km": 497.03467340913085,
      "latitude_deg": 8.451857880593387e-06,
      "longitude_deg": 74.26102112978603,
      "height_km": 507.3912926151067,
      "semi_major_axis_km": 6881.460433655635,
      "eccentricity": 0.00091387,
      "inclination_deg": 97.4005,
      "raan_deg": 342.2726,
      "arg_perigee_deg": 99.1036,
      "mean_anomaly_deg": 261.1234,
      "mean_motion_rev_day": 15.20834081
    }
  ]
}